<?xml version="1.0" encoding="utf-8" ?>
<kml xmlns="http://www.opengis.net/kml/2.2">
<Document id="root_doc">
<Schema name="karuvarakundu_boundary" id="karuvarakundu_boundary">
	<SimpleField name="folders" type="string"></SimpleField>
	<SimpleField name="descriptio" type="string"></SimpleField>
	<SimpleField name="altitude" type="float"></SimpleField>
	<SimpleField name="alt_mode" type="string"></SimpleField>
	<SimpleField name="time_begin" type="string"></SimpleField>
	<SimpleField name="time_end" type="string"></SimpleField>
	<SimpleField name="time_when" type="string"></SimpleField>
	<SimpleField name="District" type="string"></SimpleField>
	<SimpleField name="LSGD" type="string"></SimpleField>
	<SimpleField name="Lsgd_Type" type="string"></SimpleField>
	<SimpleField name="Mob_No" type="string"></SimpleField>
	<SimpleField name="ORIG_FID" type="string"></SimpleField>
	<SimpleField name="Remarks" type="string"></SimpleField>
	<SimpleField name="Shape_Area" type="string"></SimpleField>
	<SimpleField name="Shape_Leng" type="string"></SimpleField>
	<SimpleField name="Surveyor" type="string"></SimpleField>
	<SimpleField name="Ward_Name" type="string"></SimpleField>
	<SimpleField name="Ward_No" type="string"></SimpleField>
	<SimpleField name="id" type="string"></SimpleField>
</Schema>
<Folder><name>karuvarakundu_boundary</name>
  <Placemark>
	<Style><LineStyle><color>ff0000ff</color></LineStyle><PolyStyle><fill>0</fill></PolyStyle></Style>
	<ExtendedData><SchemaData schemaUrl="#karuvarakundu_boundary">
		<SimpleData name="folders">karuvarkundu</SimpleData>
		<SimpleData name="altitude">0.000000000000000</SimpleData>
		<SimpleData name="id">1</SimpleData>
	</SchemaData></ExtendedData>
      <MultiGeometry><Polygon><outerBoundaryIs><LinearRing><coordinates>76.3946481390001,11.139439499,0 76.395234547,11.139533552,0 76.395649199,11.1395280670001,0 76.3959779360001,11.1394964890001,0 76.3965976760001,11.139442472,0 76.3969471520001,11.1398217230001,0 76.3977510400001,11.140279068,0 76.397905859,11.1402193810001,0 76.3982030600001,11.1406496970001,0 76.3984607610001,11.1410229580001,0 76.3985907630001,11.1411936340001,0 76.3986717430001,11.1412485280001,0 76.398853527,11.1412180900001,0 76.3989940920001,11.141224111,0 76.399531122,11.1415078160001,0 76.399835152,11.1414750430001,0 76.400396087,11.141643662,0 76.4008543740001,11.141871393,0 76.4012492840001,11.142067862,0 76.401398783,11.14209478,0 76.4015989440001,11.1420192030001,0 76.4018302590001,11.142001936,0 76.40197119,11.1419915010001,0 76.4020563720001,11.14197212,0 76.402302863,11.1419218830001,0 76.4025540920001,11.1417152060001,0 76.4028015870001,11.141429961,0 76.403036726,11.14110509,0 76.4033747510001,11.1407577540001,0 76.403685152,11.140539496,0 76.4038666440001,11.140517415,0 76.404108249,11.140388726,0 76.404199786,11.14029523,0 76.4044398080001,11.1398452730001,0 76.404702388,11.139403537,0 76.4050029100001,11.139267509,0 76.4054658380001,11.1392082880001,0 76.4056295560001,11.1391733520001,0 76.4061715660001,11.138921305,0 76.4064366360001,11.138694115,0 76.4067049910001,11.1385946720001,0 76.407717602,11.138481106,0 76.407793832,11.1385604930001,0 76.4082982730001,11.1389346670001,0 76.4084096220001,11.139062949,0 76.408686355,11.1391627200001,0 76.4090022240001,11.139327902,0 76.4091384880001,11.1393092370001,0 76.4092995400001,11.1390476020001,0 76.4092733730001,11.1389235190001,0 76.4092680140001,11.138535834,0 76.40906039,11.138429912,0 76.4086922640001,11.138000103,0 76.4084708650001,11.137931091,0 76.408476792,11.137770421,0 76.4085769060001,11.137540852,0 76.4088801990001,11.1374865130001,0 76.409265218,11.137782326,0 76.409410714,11.1378618360001,0 76.4097063630001,11.1378968130001,0 76.4098285600001,11.1379233480001,0 76.4099292160001,11.1379639520001,0 76.4104414970001,11.1384863160001,0 76.4110240040001,11.138770854,0 76.4112217890001,11.1389467920001,0 76.411405533,11.1391965400001,0 76.4118629880001,11.139248352,0 76.41192627,11.139282227,0 76.4119536970001,11.1387590700001,0 76.4120277260001,11.138615816,0 76.411767056,11.137845236,0 76.411888048,11.137030822,0 76.411944588,11.136796593,0 76.4119330130001,11.1365697690001,0 76.411860205,11.13637842,0 76.413070685,11.1365175180001,0 76.4137268090001,11.136468886,0 76.4131545860001,11.135128992,0 76.41275023,11.13421344,0 76.4118881160001,11.132767667,0 76.411720282,11.132308946,0 76.411254897,11.131854071,0 76.4110183780001,11.131627098,0 76.4126129250001,11.129238125,0 76.4130630600001,11.128314022,0 76.413444509,11.1273899170001,0 76.413894643,11.126161569,0 76.414031982,11.125240317,0 76.41432953,11.123936655,0 76.4143219050001,11.1232471480001,0 76.4145507680001,11.122709268,0 76.414466867,11.122479444,0 76.4146881070001,11.1213283670001,0 76.415275578,11.119101527,0 76.415275578,11.118412984,0 76.4138369396542,11.1172954364867,0 76.412681579,11.116140365,0 76.4117355290001,11.1149225250001,0 76.4105529940001,11.1132497780001,0 76.4096069460001,11.1120338270001,0 76.4089813190001,11.111427296,0 76.4054183960001,11.1114597480001,0 76.4046401840001,11.111390101,0 76.4033966200001,11.1110954380001,0 76.4024581950001,11.1106453030001,0 76.4015273950001,11.1106538880001,0 76.40068053,11.110737789,0 76.3994369660001,11.1107492580001,0 76.3978805390001,11.1099968020001,0 76.397254946,11.1095447440001,0 76.3960037250001,11.1089429850001,0 76.3952941970001,11.108413689,0 76.3943633970001,11.107962593,0 76.3938140800001,11.107584957,0 76.3928756550001,11.107133861,0 76.392326338,11.106220234,0 76.3920822270001,11.10553265,0 76.391769396,11.1046934080001,0 76.3914489750001,11.1040067540001,0 76.3908920330001,11.1030149590001,0 76.3904650470001,11.102105882,0 76.3900985720001,11.101337438,0 76.3896255650001,11.10042192,0 76.3891206120001,11.0996074220001,0 76.38741007,11.0995828500001,0 76.387404754,11.099576584,0 76.3872916380001,11.0997751840001,0 76.3859846340001,11.0999274330001,0 76.3847346430001,11.1000651700001,0 76.3835461630001,11.1002159560001,0 76.3825269050001,11.100331118,0 76.3797847810001,11.099354923,0 76.3794141120001,11.099195761,0 76.3790099380001,11.099040958,0 76.3789997850001,11.098476588,0 76.3755452060001,11.096921846,0 76.3752562070001,11.0971675810001,0 76.373844014,11.097540501,0 76.3727337270001,11.0979267700001,0 76.3720067310001,11.098353327,0 76.371365068,11.0985351100001,0 76.370293906,11.098855698,0 76.3693002300001,11.098849333,0 76.3685466580001,11.098562133,0 76.3676469740001,11.0985126950001,0 76.36710113,11.0982726070001,0 76.366298939,11.0979642730001,0 76.366239609,11.0979525290001,0 76.3659619250001,11.097897561,0 76.365154746,11.0977377790001,0 76.3645485810001,11.0976707470001,0 76.364424114,11.0977452440001,0 76.3637088820001,11.0979807160001,0 76.363132942,11.0980121470001,0 76.3629369550001,11.098022843,0 76.3620310680001,11.0980213020001,0 76.3617210200001,11.0980207740001,0 76.3610964910001,11.09804711,0 76.3610195810001,11.0979878100001,0 76.360823945,11.097836971,0 76.360505958,11.097591795,0 76.360492682,11.0975606910001,0 76.360208862,11.09736882,0 76.3601868360001,11.097306689,0 76.3595842700001,11.0956069920001,0 76.3590649180001,11.095173929,0 76.358825858,11.094957997,0 76.3580717820001,11.0943687610001,0 76.357515204,11.093941854,0 76.357222952,11.0939082680001,0 76.356511627,11.093927201,0 76.3556221010001,11.0939907230001,0 76.3555086150001,11.0939937320001,0 76.3553474080001,11.093998006,0 76.3548955670001,11.0935248480001,0 76.3546715080001,11.093333006,0 76.353787954,11.093009185,0 76.3535535670001,11.0929848330001,0 76.3531515970001,11.092950735,0 76.3522317380001,11.092872706,0 76.3519923220001,11.092641206,0 76.35178461,11.092621982,0 76.351515722,11.0923916570001,0 76.351164989,11.0920179980001,0 76.3506811010001,11.091331656,0 76.3504163942389,11.0909911001633,0 76.3499967000001,11.0905452850001,0 76.3493147090001,11.0899108560001,0 76.3487067520001,11.089484871,0 76.348510316,11.08936314,0 76.347982275,11.088958932,0 76.3478758350001,11.08893713,0 76.3475983120001,11.08871982,0 76.3464957780001,11.0886059470001,0 76.3462117540001,11.088536231,0 76.3454352860001,11.088913205,0 76.344777213,11.089229511,0 76.3445650610001,11.089789328,0 76.3442701700001,11.0901493750001,0 76.344035654,11.0904139730001,0 76.343337175,11.0906911710001,0 76.342630474,11.0910074330001,0 76.3421770740001,11.091128574,0 76.3414482700001,11.0914448150001,0 76.3409872670001,11.0916440890001,0 76.34042014,11.0923989350001,0 76.3401517180001,11.0924768320001,0 76.3396320080001,11.092597911,0 76.339183097,11.092723397,0 76.3387736280001,11.092827212,0 76.3383855050001,11.092883294,0 76.3374801790001,11.092661073,0 76.3370141510001,11.0925434380001,0 76.3355661860001,11.092390181,0 76.3353361740001,11.0923812900001,0 76.3350790870001,11.0923376440001,0 76.3344726300001,11.0922849990001,0 76.3344927690001,11.092456133,0 76.3343114250001,11.0924443430001,0 76.3339541970001,11.092388596,0 76.332971194,11.0921279290001,0 76.332089679,11.092535788,0 76.3315305620001,11.0927937540001,0 76.3300418000001,11.092761271,0 76.329876492,11.092774467,0 76.3294045150001,11.092758019,0 76.328819244,11.092756595,0 76.328222773,11.0927371450001,0 76.326993444,11.0926970580001,0 76.326480352,11.092631926,0 76.325455242,11.0925017980001,0 76.3251599690001,11.0924643160001,0 76.324770916,11.0925796620001,0 76.3243598550001,11.0925764850001,0 76.3238195640001,11.09257231,0 76.322687295,11.092361651,0 76.322256097,11.092391338,0 76.322249834,11.0924816510001,0 76.3220971860001,11.092485336,0 76.3216080060001,11.092564732,0 76.3213222690001,11.0920340530001,0 76.320381126,11.08975301,0 76.320422663,11.089733661,0 76.3199976610001,11.08847791,0 76.319561612,11.0876528000001,0 76.3199601690001,11.08735633,0 76.319355086,11.0871322940001,0 76.3188911780001,11.085939285,0 76.3186795620001,11.0858556150001,0 76.3185497650001,11.0856291280001,0 76.3183779940001,11.0853294,0 76.318419872,11.0849342550001,0 76.318178721,11.084265019,0 76.317828907,11.084170688,0 76.3178003890001,11.0841788590001,0 76.317305649,11.0843206210001,0 76.3172423890001,11.084339658,0 76.317102591,11.083943372,0 76.3168670470001,11.0840384950001,0 76.31677068,11.0842029,0 76.3169553600001,11.084420354,0 76.316626286,11.0849585030001,0 76.3164233670001,11.08562762,0 76.316342336,11.0858948160001,0 76.316117138,11.08600732,0 76.3161092270001,11.086152902,0 76.3159096310001,11.0862053060001,0 76.3157282780001,11.086114031,0 76.315660215,11.086079775,0 76.315745297,11.0858634410001,0 76.316291778,11.084473915,0 76.316252552,11.084359954,0 76.3162513620001,11.0843410920001,0 76.3161756520001,11.0831413450001,0 76.316107253,11.0816315380001,0 76.3159977460001,11.0812936780001,0 76.3156471710001,11.080212058,0 76.3155143370001,11.0797981150001,0 76.315444003,11.0795789380001,0 76.3152231170001,11.07881776,0 76.315094919,11.078419355,0 76.3129618360001,11.0788537870001,0 76.3125917400001,11.078929163,0 76.3125936260001,11.078566832,0 76.311809957,11.0787086240001,0 76.3109607690001,11.07884183,0 76.310842554,11.0788686120001,0 76.3107224020001,11.078882741,0 76.3106327620001,11.078893282,0 76.309898801,11.0790084130001,0 76.309098829,11.078116596,0 76.3090519130001,11.0780408840001,0 76.3087609770001,11.077571381,0 76.3087140220001,11.077546366,0 76.308389902,11.077835968,0 76.308183134,11.0778812720001,0 76.308124719,11.077980293,0 76.308198884,11.0783393520001,0 76.307885184,11.0787538650001,0 76.307856003,11.078792423,0 76.3079699880001,11.0791623310001,0 76.3080298610001,11.0795770400001,0 76.3081548630001,11.0795680900001,0 76.3084439790001,11.07945956,0 76.3085173250001,11.0795343500001,0 76.308824185,11.079847252,0 76.308729806,11.080002967,0 76.3084936430001,11.0800918730001,0 76.308339871,11.080149761,0 76.3082263690001,11.080452984,0 76.308153953,11.0804806840001,0 76.307841824,11.080530192,0 76.307199779,11.08051543,0 76.3071196990001,11.0805461360001,0 76.3070390190001,11.080587106,0 76.306595814,11.0806224420001,0 76.3062666160001,11.080543859,0 76.306001936,11.080612945,0 76.3060272650001,11.0807020780001,0 76.3056488600001,11.080990872,0 76.305525845,11.0808625770001,0 76.3053505600001,11.080998649,0 76.3051793575178,11.0813459492723,0 76.3045245740001,11.0817737580001,0 76.304382435,11.081792971,0 76.3039812440001,11.0819007690001,0 76.303211822,11.0819299080001,0 76.303019201,11.081837669,0 76.302918875,11.0818541790001,0 76.3029168140001,11.0821269950001,0 76.3029506610001,11.0823593150001,0 76.302953733,11.082380399,0 76.302981925,11.0824973760001,0 76.3029784340001,11.082515329,0 76.3029489200001,11.0826671290001,0 76.3031579190001,11.0836752940001,0 76.303311008,11.084627675,0 76.3032965680001,11.0848529130001,0 76.30329227,11.084919945,0 76.3032988520001,11.086345302,0 76.3026919380001,11.0866754140001,0 76.302385477,11.087009402,0 76.302055244,11.087339533,0 76.301868836,11.087486719,0 76.301504639,11.087851786,0 76.300001164,11.0893302970001,0 76.299619174,11.0896899960001,0 76.2996694930001,11.089740202,0 76.299613843,11.089781853,0 76.2995257135012,11.090101831536,0 76.2994858710001,11.0902470770001,0 76.300259248,11.091094803,0 76.3009099500001,11.09148151,0 76.3015253980001,11.091856638,0 76.3020058710001,11.092064189,0 76.3020276920001,11.0920736150001,0 76.3021446500001,11.092574273,0 76.3021528570001,11.092610322,0 76.302320029,11.093344625,0 76.3023307369311,11.0934519808462,0 76.3023634953854,11.0939395334655,0 76.3026330870001,11.0948607570001,0 76.302683336,11.094977901,0 76.3028723470001,11.09537397,0 76.3030518100001,11.0959388580001,0 76.3033276290001,11.0966847330001,0 76.3035577780001,11.09724228,0 76.303565496,11.0972609780001,0 76.3036126470001,11.0973463340001,0 76.3048331900001,11.098228781,0 76.3048596630001,11.0982477690001,0 76.306157731,11.099178824,0 76.3065799,11.0994977820001,0 76.30705821,11.0997155000001,0 76.307696965,11.100247535,0 76.3084294710001,11.100744709,0 76.3086003320001,11.1006782160001,0 76.3094894600001,11.1003108680001,0 76.3096871600001,11.1002593590001,0 76.309831333,11.10019448,0 76.3103140380001,11.1001100720001,0 76.3103383040001,11.100151361,0 76.310297382,11.1002886600001,0 76.3103876540001,11.100480154,0 76.3106186840001,11.1006953300001,0 76.3108940710001,11.100842341,0 76.3110961190001,11.100960937,0 76.3110674320001,11.1010524820001,0 76.311080625,11.1010671180001,0 76.3111347170001,11.101095125,0 76.311251247,11.101208876,0 76.311256621,11.101214122,0 76.3113079620001,11.1012418020001,0 76.3112990180001,11.1013094040001,0 76.3113754990001,11.101394252,0 76.3115572980001,11.101449394,0 76.3116159090001,11.101403238,0 76.311873802,11.1016361640001,0 76.3119045120001,11.1016802450001,0 76.311912454,11.101685877,0 76.312168758,11.101968007,0 76.312201009,11.102042689,0 76.3124444480001,11.102202366,0 76.312505742,11.102349385,0 76.312661684,11.102463616,0 76.3127453290001,11.1025956870001,0 76.31287158,11.1027421440001,0 76.3129477740001,11.102879198,0 76.313066086,11.102976541,0 76.313162918,11.1031727320001,0 76.3134927150001,11.1038409340001,0 76.3136275520001,11.104038959,0 76.313627952,11.104083221,0 76.3139484100001,11.1047075340001,0 76.313855672,11.104813466,0 76.3139210470001,11.104997338,0 76.3139495200001,11.105037667,0 76.313957342,11.1050522090001,0 76.3141401120001,11.1053919820001,0 76.3142850850001,11.105516282,0 76.3143402970001,11.10556362,0 76.314464602,11.105574813,0 76.3148635430001,11.105610734,0 76.315173513,11.1056965810001,0 76.3156285840001,11.1058127540001,0 76.3158233840001,11.1058624840001,0 76.3161515180001,11.1060920350001,0 76.316191781,11.10631317,0 76.316330538,11.1064351870001,0 76.3164474170001,11.106856978,0 76.3165350800001,11.1072878790001,0 76.31653054,11.107360993,0 76.3164209230001,11.1080046210001,0 76.316429563,11.108016999,0 76.3167877700001,11.108522254,0 76.316829403,11.108620113,0 76.3169752900001,11.108811497,0 76.3170484720001,11.1089864360001,0 76.3171151560001,11.1090837990001,0 76.317124999,11.1091026,0 76.317290459,11.109340498,0 76.317765556,11.110225225,0 76.3180534140001,11.110731581,0 76.3180571890001,11.110750981,0 76.3181681360001,11.1107254,0 76.318193244,11.1108081790001,0 76.3187163800001,11.110635814,0 76.31879675,11.1106769990001,0 76.3188048640001,11.110681157,0 76.3188143880001,11.11070568,0 76.3188355610001,11.1107602000001,0 76.318699543,11.1108462180001,0 76.3187291250001,11.111216681,0 76.318604217,11.1112878480001,0 76.318828711,11.1114537440001,0 76.3188358020001,11.111605083,0 76.3189745620001,11.1117224990001,0 76.318974483,11.111744147,0 76.3189739750001,11.1118818580001,0 76.319117739,11.111917869,0 76.319218581,11.112086678,0 76.3192659680001,11.1123537020001,0 76.319280668,11.1125287900001,0 76.3193450590001,11.1126038520001,0 76.319499041,11.1126394070001,0 76.3194863240001,11.112683782,0 76.319635938,11.1129357340001,0 76.3197261710001,11.1130705260001,0 76.319813481,11.113295981,0 76.3197023330001,11.113409393,0 76.3195026450001,11.1134152110001,0 76.3195064820001,11.113553467,0 76.3195245360001,11.1137019120001,0 76.3196682170001,11.114063318,0 76.31975235,11.114305775,0 76.3198942540001,11.114756711,0 76.3199353640001,11.1148604910001,0 76.3200342760001,11.115110186,0 76.3201929665942,11.1156769898385,0 76.3203364940001,11.1159973110001,0 76.320640783,11.11667077,0 76.320720802,11.116654179,0 76.320803991,11.116683891,0 76.321048004,11.1166250640001,0 76.3209777700001,11.116784749,0 76.3209013600001,11.1170385510001,0 76.3209875220001,11.11708622,0 76.3208736300001,11.1173915270001,0 76.3208980900001,11.117609874,0 76.3212173050001,11.1176312380001,0 76.3212393210001,11.117513957,0 76.321361756,11.117537573,0 76.3217132930001,11.117549942,0 76.3217371110001,11.117570979,0 76.321873478,11.1175939940001,0 76.321877945,11.1176455950001,0 76.3226451620001,11.118020901,0 76.3230503140001,11.118211874,0 76.3239499520001,11.1189710910001,0 76.3243629900001,11.11931966,0 76.3252919380001,11.1201307390001,0 76.3256268740001,11.12039544,0 76.3258541750001,11.120575076,0 76.325918706,11.1206260750001,0 76.325572918,11.1211551000001,0 76.3253598680001,11.1215218030001,0 76.3248784850001,11.1219686440001,0 76.3245456480001,11.122277597,0 76.3240793400001,11.1223084530001,0 76.3236892450001,11.122483542,0 76.3226023030001,11.122971401,0 76.3226135990001,11.123175481,0 76.3226441910001,11.123453404,0 76.3222958760001,11.124003553,0 76.3220979210001,11.124302167,0 76.3216290340001,11.124984097,0 76.3210487430001,11.125816979,0 76.320917255,11.1260057010001,0 76.320669738,11.1263786760001,0 76.320495758,11.1267869230001,0 76.3204714890001,11.1268438700001,0 76.3203836580001,11.1268863890001,0 76.320355921,11.1270131740001,0 76.3201964420001,11.1273106360001,0 76.3199856630001,11.127625422,0 76.3197838250001,11.127908823,0 76.3197369470001,11.127974645,0 76.3194792266537,11.1281727282681,0 76.319431088,11.1281986820001,0 76.3193162890001,11.128245249,0 76.3192259130001,11.1282259590001,0 76.319094851,11.1282525470001,0 76.3190871360001,11.1282671160001,0 76.318787575,11.128345962,0 76.3186339710001,11.1283504250001,0 76.318556852,11.1284034670001,0 76.3185376280001,11.1284615980001,0 76.318529432,11.1284630280001,0 76.318529432,11.1285886710001,0 76.3182777050001,11.1285886710001,0 76.3182637940001,11.1285915,0 76.31801354,11.1288348460001,0 76.3179040850001,11.1291061050001,0 76.3179724280001,11.1291318950001,0 76.3181563080001,11.129201283,0 76.3181325130001,11.1293868810001,0 76.318256245,11.1296581400001,0 76.3183490150001,11.1297273490001,0 76.3185560570001,11.129881809,0 76.3183139380001,11.130152213,0 76.3183071700001,11.130288427,0 76.3182215050001,11.1303029590001,0 76.318066145,11.13021888,0 76.317868649,11.130310907,0 76.3177256260001,11.1304219470001,0 76.3176140880001,11.130685978,0 76.3174210550001,11.1311429240001,0 76.3172901840001,11.1312761730001,0 76.317137899,11.131385629,0 76.317003904,11.131637848,0 76.3168085570001,11.131820315,0 76.316566374,11.131925585,0 76.3164518190001,11.13202226,0 76.3161466380001,11.132076415,0 76.315990098,11.132183082,0 76.3158743270001,11.1322170600001,0 76.3157109970001,11.132256961,0 76.315702963,11.1322646410001,0 76.3154941660001,11.132420167,0 76.3154183990001,11.132469976,0 76.3153879490001,11.132508441,0 76.315195246,11.132622408,0 76.315024937,11.132763337,0 76.314715607,11.1331154970001,0 76.3147301560001,11.133214224,0 76.3147489200001,11.1333415460001,0 76.3147869910001,11.1337746080001,0 76.314715607,11.134171978,0 76.3147305200001,11.134212242,0 76.3147869910001,11.1343647140001,0 76.314784612,11.134655008,0 76.314775201,11.13478487,0 76.3147727140001,11.1348191910001,0 76.314941656,11.135185628,0 76.3153033340001,11.135245114,0 76.3154865530001,11.1354354710001,0 76.3155531780001,11.1353926410001,0 76.315829195,11.1355211320001,0 76.3162479800001,11.135768596,0 76.3162789130001,11.136165966,0 76.316287806,11.1361704120001,0 76.3165358950001,11.1362944570001,0 76.3168483060001,11.1362350590001,0 76.3168997490001,11.136215705,0 76.316994745,11.1361524930001,0 76.3171982760001,11.136208912,0 76.317259811,11.136153618,0 76.3173145820001,11.1360141370001,0 76.317485203,11.1360144020001,0 76.3177458170001,11.1360007960001,0 76.317863634,11.135994645,0 76.318001413,11.1361163490001,0 76.3181491700001,11.1362468680001,0 76.3188344540001,11.1364039120001,0 76.31892701,11.1367312460001,0 76.318991833,11.1369604970001,0 76.319180089,11.13690094,0 76.3191814730001,11.1368954810001,0 76.319228378,11.1368863270001,0 76.3196753770001,11.136799094,0 76.3197342350001,11.136745117,0 76.319928352,11.136750239,0 76.3200475130001,11.1367685700001,0 76.320159506,11.1367780960001,0 76.320216202,11.136782919,0 76.320233692,11.1368881450001,0 76.3212824550001,11.137555655,0 76.321459039,11.1374428870001,0 76.3215580090001,11.137365727,0 76.3217379870001,11.1374156160001,0 76.3218602140001,11.137332245,0 76.3219579400001,11.137308225,0 76.3220456280001,11.1373271200001,0 76.322269529,11.1372845600001,0 76.3224843140001,11.1372106110001,0 76.3226518180001,11.1373081530001,0 76.322741643,11.13734628,0 76.322929575,11.1373928520001,0 76.3231437420001,11.137119193,0 76.3231766390001,11.1370211890001,0 76.323291967,11.1365474180001,0 76.3232538990001,11.1363663430001,0 76.323230552,11.1361594700001,0 76.3233917900001,11.136114134,0 76.3237435360001,11.1360690430001,0 76.3239373700001,11.136079892,0 76.324040574,11.1361544810001,0 76.3242809700001,11.1361973530001,0 76.3246465440001,11.1361896760001,0 76.3250116200001,11.135893572,0 76.3251186830001,11.135821987,0 76.3251917700001,11.135527091,0 76.3252981810001,11.135179436,0 76.3253040340001,11.135146611,0 76.3253157390001,11.1350809730001,0 76.325321279,11.134681401,0 76.325344482,11.134573667,0 76.3253888690001,11.134520589,0 76.3254604570001,11.1343578680001,0 76.3255953300001,11.134220737,0 76.325609097,11.134072667,0 76.3256660530001,11.1339677510001,0 76.3256749490001,11.1338917590001,0 76.3257077870001,11.133808322,0 76.3257831820001,11.1334992970001,0 76.3258913480001,11.1334555560001,0 76.3259023190001,11.1334165260001,0 76.325906822,11.1334005030001,0 76.325999633,11.1332428540001,0 76.3260345410001,11.1331541600001,0 76.3261739260001,11.1329891070001,0 76.326494553,11.1330309370001,0 76.326737381,11.132872639,0 76.3269913990001,11.1328339890001,0 76.3272127440001,11.132655831,0 76.3272248750001,11.132661516,0 76.3273989630001,11.1323817680001,0 76.3274686950001,11.132034929,0 76.327557551,11.131833767,0 76.3275909450001,11.1316735130001,0 76.3278375520001,11.1310915450001,0 76.3278422480001,11.131094118,0 76.3279895110001,11.131007099,0 76.3281488530001,11.130979885,0 76.3282502900001,11.1308658850001,0 76.328282857,11.130721764,0 76.3285527100001,11.1305929330001,0 76.328962888,11.1312296840001,0 76.3292045540001,11.1310369730001,0 76.3293369290001,11.130882678,0 76.3294467370001,11.1308571160001,0 76.3295136400001,11.130722399,0 76.329583126,11.130754629,0 76.3297838780001,11.130721856,0 76.329964858,11.130780276,0 76.3301150170001,11.1306945740001,0 76.3301746910001,11.1307665260001,0 76.330299681,11.1307736970001,0 76.330339983,11.1307752080001,0 76.3306071470001,11.1308526070001,0 76.3309888420001,11.1309459120001,0 76.331017784,11.130853151,0 76.3314840180001,11.1308519190001,0 76.3318157190001,11.130744642,0 76.3319103200001,11.1308341480001,0 76.332221227,11.130660951,0 76.3323232400001,11.130650947,0 76.33252839,11.1305406230001,0 76.3325293190001,11.130465879,0 76.3327125910001,11.130376835,0 76.3327199650001,11.130280439,0 76.3329216400001,11.130201184,0 76.3330192510001,11.1302969930001,0 76.3330841860001,11.1302892110001,0 76.3331161070001,11.130301928,0 76.3332318390001,11.1303021200001,0 76.3333609750001,11.130258521,0 76.333468994,11.130258527,0 76.333467607,11.1303700780001,0 76.3336751900001,11.130429572,0 76.333906428,11.130448115,0 76.3340019140001,11.13042187,0 76.3340124970001,11.1301839770001,0 76.334035069,11.130157587,0 76.334048803,11.1301264960001,0 76.334132116,11.130045458,0 76.3341169400001,11.13001367,0 76.334138265,11.1299086940001,0 76.3340743050001,11.1298645090001,0 76.33405938,11.1298125280001,0 76.333973153,11.129770051,0 76.3339384930001,11.129695149,0 76.333988596,11.129422533,0 76.3339886380282,11.1294415804177,0 76.334075221,11.129254041,0 76.334104203,11.12925474,0 76.334103671,11.129143953,0 76.334163974,11.129032658,0 76.334200083,11.1289064310001,0 76.3343516690001,11.1285519680001,0 76.3344161900001,11.128356102,0 76.3343929270001,11.127939403,0 76.334349396117,11.1277956601615,0 76.3342474350001,11.1277124550001,0 76.3341482930001,11.127679318,0 76.333927003,11.12764078,0 76.3339307470001,11.1276205150001,0 76.3340470910001,11.1272663280001,0 76.334209071,11.1269394600001,0 76.3345180580001,11.126525373,0 76.3345203860001,11.126427533,0 76.334427324,11.12605803,0 76.3343961640001,11.125748114,0 76.3344068490001,11.125448966,0 76.3346315150001,11.125441301,0 76.3351013340001,11.1253872350001,0 76.3352098300001,11.125625219,0 76.335349852,11.125620746,0 76.335838655,11.125499141,0 76.336085338,11.1254632380001,0 76.3362184970001,11.125385372,0 76.336316507,11.1254243460001,0 76.3364718810001,11.1254359340001,0 76.3365387650001,11.1254767730001,0 76.3368678790001,11.125482085,0 76.3372891390001,11.125581148,0 76.3372765490001,11.1253428580001,0 76.33730567,11.1252938700001,0 76.3376511120001,11.1252368080001,0 76.337781582,11.125166724,0 76.338055705,11.125008565,0 76.3381216880001,11.1249133910001,0 76.3381942410001,11.1249151380001,0 76.338233378,11.124902918,0 76.3383421780001,11.124793278,0 76.3383362760001,11.124788159,0 76.338578564,11.124758651,0 76.3388828450001,11.1248071590001,0 76.33907164,11.1247641,0 76.3395552200001,11.1247144170001,0 76.3396570770001,11.1246988560001,0 76.3397936980001,11.124677983,0 76.3403401020001,11.124677983,0 76.3403939070001,11.124673026,0 76.3411731030001,11.124690485,0 76.341430491,11.1246919930001,0 76.3418829730001,11.124720253,0 76.342436417,11.1249905830001,0 76.3429743830001,11.125406169,0 76.3432775950001,11.1256970640001,0 76.3433294880001,11.126048439,0 76.3432986320001,11.1263353200001,0 76.3433187810001,11.127006233,0 76.3432899000001,11.127220543,0 76.343332736,11.1274813150001,0 76.343378515,11.1279161850001,0 76.3433896270001,11.128213542,0 76.3434334300001,11.1287209830001,0 76.343545937,11.130091129,0 76.3437314940001,11.130357533,0 76.3438889180001,11.1305888700001,0 76.3440288240001,11.1306565670001,0 76.3440719750001,11.1306421460001,0 76.3444474940001,11.1302803670001,0 76.3446098920001,11.1301604780001,0 76.345218495,11.1296941140001,0 76.3456684170001,11.1295842280001,0 76.3459207770001,11.129517827,0 76.3461309290001,11.129509393,0 76.3462127330001,11.129489414,0 76.3463577530001,11.129510391,0 76.3464701250001,11.1294869170001,0 76.346624879,11.12939908,0 76.3467280660001,11.129091105,0 76.34669533,11.129049853,0 76.3466914300001,11.1289443680001,0 76.346633081,11.1288490050001,0 76.346501442,11.128709585,0 76.3465461060001,11.1283126440001,0 76.346623922,11.1281903780001,0 76.3467961410001,11.127958477,0 76.346912779,11.1277782770001,0 76.3469336220001,11.1277588890001,0 76.3472851640001,11.127531644,0 76.3476668380001,11.1273168980001,0 76.34799718,11.1272465430001,0 76.3479799040001,11.126973806,0 76.3478929870001,11.126653891,0 76.3478885270001,11.1263331770001,0 76.3479453790001,11.126061695,0 76.3480386580001,11.1255231710001,0 76.348393791,11.125524418,0 76.348973599,11.1254836100001,0 76.3489030480001,11.125064426,0 76.3490523290001,11.1250592000001,0 76.3494287190001,11.124993346,0 76.349751052,11.124947456,0 76.3500852080001,11.1249208890001,0 76.3500749620001,11.124994854,0 76.350164383,11.12503675,0 76.3502558050001,11.1251563810001,0 76.3502933820001,11.125288197,0 76.3503192300001,11.125548419,0 76.35046944,11.125927952,0 76.3505229470001,11.12623067,0 76.3505440430001,11.126514264,0 76.3505609040001,11.126953405,0 76.350766181,11.1272819220001,0 76.351285583,11.1273270570001,0 76.3517934380001,11.127536202,0 76.352210186,11.127709437,0 76.3524721590001,11.127713586,0 76.352801088,11.127600015,0 76.3529169110001,11.127508581,0 76.35315854,11.127479478,0 76.3531314310001,11.12739599,0 76.352798266,11.1272226960001,0 76.3530067474977,11.1269623858765,0 76.3532022620001,11.1266714,0 76.3533427880001,11.126791698,0 76.3539428060001,11.126760414,0 76.3539906830001,11.126652436,0 76.3542352590001,11.12658216,0 76.3548467940001,11.126678084,0 76.355249105,11.126756232,0 76.3555124920001,11.126875338,0 76.355594248,11.126843423,0 76.355991868,11.126983861,0 76.3561803490001,11.1271482970001,0 76.356397094,11.1273682080001,0 76.3565427010001,11.1275939400001,0 76.356707466,11.1279573940001,0 76.3567932970001,11.128170185,0 76.356927603,11.128285159,0 76.3574079370001,11.1284157050001,0 76.3575407050001,11.128482019,0 76.3576556990001,11.128570139,0 76.3580073590001,11.12890474,0 76.3583629730001,11.1294096610001,0 76.3584441070001,11.1295846400001,0 76.3585709990001,11.1296564200001,0 76.358905409,11.1298884330001,0 76.3592540070001,11.129914796,0 76.359502954,11.129920494,0 76.3602450830001,11.130110695,0 76.3607148450001,11.1302088940001,0 76.360850638,11.130058852,0 76.3608737050001,11.1299477600001,0 76.3617744730001,11.1298849410001,0 76.3625443430001,11.130318242,0 76.362708099,11.130403184,0 76.363013295,11.1304461940001,0 76.3631769850001,11.130428382,0 76.3640109900001,11.130504119,0 76.3642762370001,11.130542108,0 76.3642505020001,11.1306973850001,0 76.3640647830001,11.1308387440001,0 76.3641272840001,11.130926366,0 76.36410234,11.1312137630001,0 76.3640715320001,11.1315687260001,0 76.3640024210001,11.131630073,0 76.3640754990001,11.131825882,0 76.364341315,11.1318480950001,0 76.365016875,11.131891258,0 76.3653401030001,11.131908675,0 76.365845156,11.131878697,0 76.3659320770001,11.131873538,0 76.3664913520001,11.131791892,0 76.3665862870001,11.131813799,0 76.3666499130001,11.131802281,0 76.3666672910001,11.1318112770001,0 76.366947791,11.131954735,0 76.367083715,11.1319731670001,0 76.367689232,11.1322166800001,0 76.3680287550001,11.132262724,0 76.3681613950001,11.132153278,0 76.3682781854774,11.1321416503667,0 76.3687239160001,11.1321487550001,0 76.369058227,11.132285325,0 76.3693948760001,11.13257445,0 76.370137792,11.132745882,0 76.3702700570001,11.132677518,0 76.3704968810001,11.132664172,0 76.3709092220001,11.1327069910001,0 76.371104889,11.132635727,0 76.3713585610001,11.1326722060001,0 76.371533411,11.132888908,0 76.3717084350001,11.133212019,0 76.372127123,11.13390323,0 76.3724019140001,11.134105069,0 76.3725569810001,11.134167404,0 76.372614469,11.134190484,0 76.372800189,11.1341930880001,0 76.37316788,11.1341528470001,0 76.3736258110001,11.1341840900001,0 76.373884086,11.1342123380001,0 76.374023692,11.1342680540001,0 76.3742257200001,11.134035865,0 76.374331403,11.133880644,0 76.3744236580001,11.133708773,0 76.3746017820001,11.133591605,0 76.374774115,11.1335653460001,0 76.3749959140001,11.133622019,0 76.3751042010001,11.1336688690001,0 76.375306767,11.133840628,0 76.375625303,11.1342558280001,0 76.375831261,11.134520062,0 76.375974392,11.13473227,0 76.376112769,11.1349691670001,0 76.376246386,11.135114027,0 76.3762745600001,11.1351446000001,0 76.376376764,11.1353770050001,0 76.376791482,11.1356467140001,0 76.3768431330001,11.135687284,0 76.376849909,11.1356927350001,0 76.3768843400001,11.1358952540001,0 76.3776117260001,11.1361227090001,0 76.3775591020001,11.135929537,0 76.3776021240001,11.1358531280001,0 76.3778980420001,11.1358901990001,0 76.3781159050001,11.1358823460001,0 76.3787694000001,11.1358144320001,0 76.3790727830001,11.1357817150001,0 76.3792089340001,11.1357754590001,0 76.3792994840001,11.135805405,0 76.379458453,11.1357789580001,0 76.379509699,11.135816714,0 76.3796925600001,11.1359510940001,0 76.3800281800001,11.135968211,0 76.380426114,11.1360934580001,0 76.3808110410001,11.136148303,0 76.381119072,11.136165034,0 76.381198311,11.1361567870001,0 76.381505157,11.1361248540001,0 76.381600921,11.136056239,0 76.3818643290001,11.136010486,0 76.3821810920001,11.1361251230001,0 76.382207878,11.136134709,0 76.3823693210001,11.136246123,0 76.3824967680001,11.1362094360001,0 76.3826043920001,11.1363130410001,0 76.382671665,11.136397463,0 76.38293987,11.136447667,0 76.3832642570001,11.1366869770001,0 76.383294376,11.1367070760001,0 76.3834772260001,11.136829095,0 76.383721054,11.136944016,0 76.383812618,11.136973126,0 76.3841363610001,11.136922014,0 76.384439795,11.1368209720001,0 76.384686049,11.1366947,0 76.3850556500001,11.1367046510001,0 76.385158522,11.136707335,0 76.3854591050001,11.136588095,0 76.385595579,11.1365229900001,0 76.3858638790001,11.1362020460001,0 76.3865255110001,11.1363752770001,0 76.3871488890001,11.1362849280001,0 76.387315259,11.136321293,0 76.3875272080001,11.1365747030001,0 76.387749881,11.1367634000001,0 76.3880968970001,11.1369484850001,0 76.388142589,11.136972837,0 76.3885730760001,11.1371212710001,0 76.3888955180001,11.1372122120001,0 76.3890657140001,11.137183833,0 76.3890476400001,11.137313501,0 76.389279193,11.13727024,0 76.3896556030001,11.137462596,0 76.3904025790001,11.1377556460001,0 76.3907082330001,11.137961314,0 76.391200886,11.1380300810001,0 76.3913932990001,11.138149245,0 76.3919821110001,11.1385140850001,0 76.3922708790001,11.1385551710001,0 76.3928519710001,11.138609762,0 76.393422962,11.1386610110001,0 76.394008823,11.138806856,0 76.3941117100001,11.1388314220001,0 76.394254866,11.138805603,0 76.394572737,11.1390110510001,0 76.3946481390001,11.139439499,0</coordinates></LinearRing></outerBoundaryIs></Polygon></MultiGeometry>
  </Placemark>
  <Placemark>
	<Style><LineStyle><color>ff0000ff</color></LineStyle><PolyStyle><fill>0</fill></PolyStyle></Style>
	<ExtendedData><SchemaData schemaUrl="#karuvarakundu_boundary">
		<SimpleData name="altitude">0.000000000000000</SimpleData>
		<SimpleData name="District">Malappuram</SimpleData>
		<SimpleData name="LSGD">Karuvarakundu</SimpleData>
		<SimpleData name="Lsgd_Type">Grama Panchayat</SimpleData>
		<SimpleData name="Mob_No">9562259483</SimpleData>
		<SimpleData name="ORIG_FID">186</SimpleData>
		<SimpleData name="Remarks">Mullara</SimpleData>
		<SimpleData name="Shape_Area">3091253.334166680462658</SimpleData>
		<SimpleData name="Shape_Leng">0</SimpleData>
		<SimpleData name="Surveyor">Jeri Amal Dev M</SimpleData>
		<SimpleData name="Ward_Name">MULLARA (08)</SimpleData>
		<SimpleData name="Ward_No">8</SimpleData>
	</SchemaData></ExtendedData>
      <MultiGeometry></MultiGeometry>
  </Placemark>
  <Placemark>
	<Style><LineStyle><color>ff0000ff</color></LineStyle><PolyStyle><fill>0</fill></PolyStyle></Style>
	<ExtendedData><SchemaData schemaUrl="#karuvarakundu_boundary">
		<SimpleData name="altitude">0.000000000000000</SimpleData>
		<SimpleData name="District">Malappuram</SimpleData>
		<SimpleData name="LSGD">Karuvarakundu</SimpleData>
		<SimpleData name="Lsgd_Type">Grama Panchayat</SimpleData>
		<SimpleData name="Mob_No">9562259483</SimpleData>
		<SimpleData name="ORIG_FID">770</SimpleData>
		<SimpleData name="Remarks">Karuvarakundu</SimpleData>
		<SimpleData name="Shape_Area">714599.157437635585666</SimpleData>
		<SimpleData name="Shape_Leng">0</SimpleData>
		<SimpleData name="Surveyor">Jery Amal Dev M</SimpleData>
		<SimpleData name="Ward_Name">KARUVARAKUNDU (11)</SimpleData>
		<SimpleData name="Ward_No">11</SimpleData>
	</SchemaData></ExtendedData>
      <MultiGeometry></MultiGeometry>
  </Placemark>
  <Placemark>
	<Style><LineStyle><color>ff0000ff</color></LineStyle><PolyStyle><fill>0</fill></PolyStyle></Style>
	<ExtendedData><SchemaData schemaUrl="#karuvarakundu_boundary">
		<SimpleData name="altitude">0.000000000000000</SimpleData>
		<SimpleData name="District">Malappuram</SimpleData>
		<SimpleData name="LSGD">Karuvarakundu</SimpleData>
		<SimpleData name="Lsgd_Type">Grama Panchayat</SimpleData>
		<SimpleData name="ORIG_FID">940</SimpleData>
		<SimpleData name="Remarks">Puthanazhi</SimpleData>
		<SimpleData name="Shape_Area">1596699.596862005768344</SimpleData>
		<SimpleData name="Shape_Leng">0</SimpleData>
		<SimpleData name="Surveyor">Jery Amal Dev M</SimpleData>
		<SimpleData name="Ward_Name">PUTHANAZHI (22)</SimpleData>
		<SimpleData name="Ward_No">22</SimpleData>
	</SchemaData></ExtendedData>
      <MultiGeometry></MultiGeometry>
  </Placemark>
  <Placemark>
	<Style><LineStyle><color>ff0000ff</color></LineStyle><PolyStyle><fill>0</fill></PolyStyle></Style>
	<ExtendedData><SchemaData schemaUrl="#karuvarakundu_boundary">
		<SimpleData name="altitude">0.000000000000000</SimpleData>
		<SimpleData name="District">Malappuram</SimpleData>
		<SimpleData name="LSGD">Karuvarakundu</SimpleData>
		<SimpleData name="Lsgd_Type">Grama Panchayat</SimpleData>
		<SimpleData name="ORIG_FID">946</SimpleData>
		<SimpleData name="Remarks">Koithakundu</SimpleData>
		<SimpleData name="Shape_Area">1825764.604542514774948</SimpleData>
		<SimpleData name="Shape_Leng">0</SimpleData>
		<SimpleData name="Ward_Name">KOITHAKUNDU (01)</SimpleData>
		<SimpleData name="Ward_No">1</SimpleData>
	</SchemaData></ExtendedData>
      <MultiGeometry></MultiGeometry>
  </Placemark>
  <Placemark>
	<Style><LineStyle><color>ff0000ff</color></LineStyle><PolyStyle><fill>0</fill></PolyStyle></Style>
	<ExtendedData><SchemaData schemaUrl="#karuvarakundu_boundary">
		<SimpleData name="altitude">0.000000000000000</SimpleData>
		<SimpleData name="District">Malappuram</SimpleData>
		<SimpleData name="LSGD">Karuvarakundu</SimpleData>
		<SimpleData name="Lsgd_Type">Grama Panchayat</SimpleData>
		<SimpleData name="ORIG_FID">986</SimpleData>
		<SimpleData name="Remarks">Bavanamparambu</SimpleData>
		<SimpleData name="Shape_Area">961327.494628273067065</SimpleData>
		<SimpleData name="Shape_Leng">0</SimpleData>
		<SimpleData name="Surveyor">Jery Amal Dev M</SimpleData>
		<SimpleData name="Ward_Name">BAVANAMPARAMBU (23)</SimpleData>
		<SimpleData name="Ward_No">23</SimpleData>
	</SchemaData></ExtendedData>
      <MultiGeometry></MultiGeometry>
  </Placemark>
  <Placemark>
	<Style><LineStyle><color>ff0000ff</color></LineStyle><PolyStyle><fill>0</fill></PolyStyle></Style>
	<ExtendedData><SchemaData schemaUrl="#karuvarakundu_boundary">
		<SimpleData name="altitude">0.000000000000000</SimpleData>
		<SimpleData name="District">Malappuram</SimpleData>
		<SimpleData name="LSGD">Karuvarakundu</SimpleData>
		<SimpleData name="Lsgd_Type">Grama Panchayat</SimpleData>
		<SimpleData name="Mob_No">9562259483</SimpleData>
		<SimpleData name="ORIG_FID">1034</SimpleData>
		<SimpleData name="Remarks">Chulliyodu</SimpleData>
		<SimpleData name="Shape_Area">1698310.47793501149863</SimpleData>
		<SimpleData name="Shape_Leng">0</SimpleData>
		<SimpleData name="Surveyor">Jery Amal Dev M</SimpleData>
		<SimpleData name="Ward_Name">CHULLIYODE (19)</SimpleData>
		<SimpleData name="Ward_No">19</SimpleData>
	</SchemaData></ExtendedData>
      <MultiGeometry></MultiGeometry>
  </Placemark>
  <Placemark>
	<Style><LineStyle><color>ff0000ff</color></LineStyle><PolyStyle><fill>0</fill></PolyStyle></Style>
	<ExtendedData><SchemaData schemaUrl="#karuvarakundu_boundary">
		<SimpleData name="altitude">0.000000000000000</SimpleData>
		<SimpleData name="District">Malappuram</SimpleData>
		<SimpleData name="LSGD">Karuvarakundu</SimpleData>
		<SimpleData name="Lsgd_Type">Grama Panchayat</SimpleData>
		<SimpleData name="Mob_No">9562259483</SimpleData>
		<SimpleData name="ORIG_FID">1164</SimpleData>
		<SimpleData name="Remarks">Ayyappankavu</SimpleData>
		<SimpleData name="Shape_Area">948413.024490627227351</SimpleData>
		<SimpleData name="Shape_Leng">0</SimpleData>
		<SimpleData name="Surveyor">Jery Amal Dev M</SimpleData>
		<SimpleData name="Ward_Name">AYYAPPANKAVU (18)</SimpleData>
		<SimpleData name="Ward_No">18</SimpleData>
	</SchemaData></ExtendedData>
      <MultiGeometry></MultiGeometry>
  </Placemark>
  <Placemark>
	<Style><LineStyle><color>ff0000ff</color></LineStyle><PolyStyle><fill>0</fill></PolyStyle></Style>
	<ExtendedData><SchemaData schemaUrl="#karuvarakundu_boundary">
		<SimpleData name="altitude">0.000000000000000</SimpleData>
		<SimpleData name="District">Malappuram</SimpleData>
		<SimpleData name="LSGD">Karuvarakundu</SimpleData>
		<SimpleData name="Lsgd_Type">Grama Panchayat</SimpleData>
		<SimpleData name="ORIG_FID">1549</SimpleData>
		<SimpleData name="Remarks">ARIMANAL</SimpleData>
		<SimpleData name="Shape_Area">2878706.757507363334298</SimpleData>
		<SimpleData name="Shape_Leng">0</SimpleData>
		<SimpleData name="Surveyor">Jery Amal Dev M</SimpleData>
		<SimpleData name="Ward_Name">ARIMANAL (03)</SimpleData>
		<SimpleData name="Ward_No">3</SimpleData>
	</SchemaData></ExtendedData>
      <MultiGeometry></MultiGeometry>
  </Placemark>
  <Placemark>
	<Style><LineStyle><color>ff0000ff</color></LineStyle><PolyStyle><fill>0</fill></PolyStyle></Style>
	<ExtendedData><SchemaData schemaUrl="#karuvarakundu_boundary">
		<SimpleData name="altitude">0.000000000000000</SimpleData>
		<SimpleData name="District">Malappuram</SimpleData>
		<SimpleData name="LSGD">Karuvarakundu</SimpleData>
		<SimpleData name="Lsgd_Type">Grama Panchayat</SimpleData>
		<SimpleData name="ORIG_FID">1591</SimpleData>
		<SimpleData name="Remarks">Pulvetta</SimpleData>
		<SimpleData name="Shape_Area">1075251.441490058088675</SimpleData>
		<SimpleData name="Shape_Leng">0</SimpleData>
		<SimpleData name="Surveyor">Jery Amal Dev M</SimpleData>
		<SimpleData name="Ward_Name">PULVETTA (16)</SimpleData>
		<SimpleData name="Ward_No">16</SimpleData>
	</SchemaData></ExtendedData>
      <MultiGeometry></MultiGeometry>
  </Placemark>
  <Placemark>
	<Style><LineStyle><color>ff0000ff</color></LineStyle><PolyStyle><fill>0</fill></PolyStyle></Style>
	<ExtendedData><SchemaData schemaUrl="#karuvarakundu_boundary">
		<SimpleData name="altitude">0.000000000000000</SimpleData>
		<SimpleData name="District">Malappuram</SimpleData>
		<SimpleData name="LSGD">Karuvarakundu</SimpleData>
		<SimpleData name="Lsgd_Type">Grama Panchayat</SimpleData>
		<SimpleData name="ORIG_FID">1842</SimpleData>
		<SimpleData name="Remarks">Veettikunnu</SimpleData>
		<SimpleData name="Shape_Area">1953049.522837459109724</SimpleData>
		<SimpleData name="Shape_Leng">0</SimpleData>
		<SimpleData name="Surveyor">Jery Amal Dev M</SimpleData>
		<SimpleData name="Ward_Name">VEETTIKUNNU (20)</SimpleData>
		<SimpleData name="Ward_No">20</SimpleData>
	</SchemaData></ExtendedData>
      <MultiGeometry></MultiGeometry>
  </Placemark>
  <Placemark>
	<Style><LineStyle><color>ff0000ff</color></LineStyle><PolyStyle><fill>0</fill></PolyStyle></Style>
	<ExtendedData><SchemaData schemaUrl="#karuvarakundu_boundary">
		<SimpleData name="altitude">0.000000000000000</SimpleData>
		<SimpleData name="District">Malappuram</SimpleData>
		<SimpleData name="LSGD">Karuvarakundu</SimpleData>
		<SimpleData name="Lsgd_Type">Grama Panchayat</SimpleData>
		<SimpleData name="Mob_No">9562259483</SimpleData>
		<SimpleData name="ORIG_FID">1938</SimpleData>
		<SimpleData name="Remarks">Tharish</SimpleData>
		<SimpleData name="Shape_Area">487849.515281114843674</SimpleData>
		<SimpleData name="Shape_Leng">0</SimpleData>
		<SimpleData name="Surveyor">Jery Amal Dev</SimpleData>
		<SimpleData name="Ward_Name">THARISH (13)</SimpleData>
		<SimpleData name="Ward_No">13</SimpleData>
	</SchemaData></ExtendedData>
      <MultiGeometry></MultiGeometry>
  </Placemark>
  <Placemark>
	<Style><LineStyle><color>ff0000ff</color></LineStyle><PolyStyle><fill>0</fill></PolyStyle></Style>
	<ExtendedData><SchemaData schemaUrl="#karuvarakundu_boundary">
		<SimpleData name="altitude">0.000000000000000</SimpleData>
		<SimpleData name="District">Malappuram</SimpleData>
		<SimpleData name="LSGD">Karuvarakundu</SimpleData>
		<SimpleData name="Lsgd_Type">Grama Panchayat</SimpleData>
		<SimpleData name="Mob_No">9562259483</SimpleData>
		<SimpleData name="ORIG_FID">2047</SimpleData>
		<SimpleData name="Remarks">Chembankunnu</SimpleData>
		<SimpleData name="Shape_Area">979450.459407782298513</SimpleData>
		<SimpleData name="Shape_Leng">0</SimpleData>
		<SimpleData name="Surveyor">Jery Amal Dev M</SimpleData>
		<SimpleData name="Ward_Name">CHEMBANKUNNU (17)</SimpleData>
		<SimpleData name="Ward_No">17</SimpleData>
	</SchemaData></ExtendedData>
      <MultiGeometry></MultiGeometry>
  </Placemark>
  <Placemark>
	<Style><LineStyle><color>ff0000ff</color></LineStyle><PolyStyle><fill>0</fill></PolyStyle></Style>
	<ExtendedData><SchemaData schemaUrl="#karuvarakundu_boundary">
		<SimpleData name="altitude">0.000000000000000</SimpleData>
		<SimpleData name="District">Malappuram</SimpleData>
		<SimpleData name="LSGD">Karuvarakundu</SimpleData>
		<SimpleData name="Lsgd_Type">Grama Panchayat</SimpleData>
		<SimpleData name="ORIG_FID">2346</SimpleData>
		<SimpleData name="Remarks">Punnakkadu</SimpleData>
		<SimpleData name="Shape_Area">1086343.504785774508491</SimpleData>
		<SimpleData name="Shape_Leng">0</SimpleData>
		<SimpleData name="Ward_Name">PUNNAKKADU (24)</SimpleData>
		<SimpleData name="Ward_No">24</SimpleData>
	</SchemaData></ExtendedData>
      <MultiGeometry></MultiGeometry>
  </Placemark>
  <Placemark>
	<Style><LineStyle><color>ff0000ff</color></LineStyle><PolyStyle><fill>0</fill></PolyStyle></Style>
	<ExtendedData><SchemaData schemaUrl="#karuvarakundu_boundary">
		<SimpleData name="altitude">0.000000000000000</SimpleData>
		<SimpleData name="District">Malappuram</SimpleData>
		<SimpleData name="LSGD">Karuvarakundu</SimpleData>
		<SimpleData name="Lsgd_Type">Grama Panchayat</SimpleData>
		<SimpleData name="Mob_No">9562259483</SimpleData>
		<SimpleData name="ORIG_FID">2457</SimpleData>
		<SimpleData name="Remarks">Mampatta</SimpleData>
		<SimpleData name="Shape_Area">1102312.217116305604577</SimpleData>
		<SimpleData name="Shape_Leng">0</SimpleData>
		<SimpleData name="Surveyor">Jery amaldev</SimpleData>
		<SimpleData name="Ward_Name">MAMPATTA (09)</SimpleData>
		<SimpleData name="Ward_No">9</SimpleData>
	</SchemaData></ExtendedData>
      <MultiGeometry></MultiGeometry>
  </Placemark>
  <Placemark>
	<Style><LineStyle><color>ff0000ff</color></LineStyle><PolyStyle><fill>0</fill></PolyStyle></Style>
	<ExtendedData><SchemaData schemaUrl="#karuvarakundu_boundary">
		<SimpleData name="altitude">0.000000000000000</SimpleData>
		<SimpleData name="District">Malappuram</SimpleData>
		<SimpleData name="LSGD">Karuvarakundu</SimpleData>
		<SimpleData name="Lsgd_Type">Grama Panchayat</SimpleData>
		<SimpleData name="Mob_No">9562259483</SimpleData>
		<SimpleData name="ORIG_FID">2462</SimpleData>
		<SimpleData name="Remarks">Kerala</SimpleData>
		<SimpleData name="Shape_Area">1802872.357111716642976</SimpleData>
		<SimpleData name="Shape_Leng">0</SimpleData>
		<SimpleData name="Surveyor">jery amaldev</SimpleData>
		<SimpleData name="Ward_Name">KERALA (04)</SimpleData>
		<SimpleData name="Ward_No">4</SimpleData>
	</SchemaData></ExtendedData>
      <MultiGeometry></MultiGeometry>
  </Placemark>
  <Placemark>
	<Style><LineStyle><color>ff0000ff</color></LineStyle><PolyStyle><fill>0</fill></PolyStyle></Style>
	<ExtendedData><SchemaData schemaUrl="#karuvarakundu_boundary">
		<SimpleData name="altitude">0.000000000000000</SimpleData>
		<SimpleData name="District">Malappuram</SimpleData>
		<SimpleData name="LSGD">Karuvarakundu</SimpleData>
		<SimpleData name="Lsgd_Type">Grama Panchayat</SimpleData>
		<SimpleData name="Mob_No">9562259483</SimpleData>
		<SimpleData name="ORIG_FID">2696</SimpleData>
		<SimpleData name="Remarks">Kannath</SimpleData>
		<SimpleData name="Shape_Area">859406.431564964586869</SimpleData>
		<SimpleData name="Shape_Leng">0</SimpleData>
		<SimpleData name="Surveyor">Jery amaldev</SimpleData>
		<SimpleData name="Ward_Name">KANNATH (10)</SimpleData>
		<SimpleData name="Ward_No">10</SimpleData>
	</SchemaData></ExtendedData>
      <MultiGeometry></MultiGeometry>
  </Placemark>
  <Placemark>
	<Style><LineStyle><color>ff0000ff</color></LineStyle><PolyStyle><fill>0</fill></PolyStyle></Style>
	<ExtendedData><SchemaData schemaUrl="#karuvarakundu_boundary">
		<SimpleData name="altitude">0.000000000000000</SimpleData>
		<SimpleData name="District">Malappuram</SimpleData>
		<SimpleData name="LSGD">Karuvarakundu</SimpleData>
		<SimpleData name="Lsgd_Type">Grama Panchayat</SimpleData>
		<SimpleData name="Mob_No">9562259483</SimpleData>
		<SimpleData name="ORIG_FID">3075</SimpleData>
		<SimpleData name="Remarks">Kuttathi</SimpleData>
		<SimpleData name="Shape_Area">1339071.229417412541807</SimpleData>
		<SimpleData name="Shape_Leng">0</SimpleData>
		<SimpleData name="Surveyor">Jery amal dev m</SimpleData>
		<SimpleData name="Ward_Name">KUTTATHI (02)</SimpleData>
		<SimpleData name="Ward_No">2</SimpleData>
	</SchemaData></ExtendedData>
      <MultiGeometry></MultiGeometry>
  </Placemark>
  <Placemark>
	<Style><LineStyle><color>ff0000ff</color></LineStyle><PolyStyle><fill>0</fill></PolyStyle></Style>
	<ExtendedData><SchemaData schemaUrl="#karuvarakundu_boundary">
		<SimpleData name="altitude">0.000000000000000</SimpleData>
		<SimpleData name="District">Malappuram</SimpleData>
		<SimpleData name="LSGD">Karuvarakundu</SimpleData>
		<SimpleData name="Lsgd_Type">Grama Panchayat</SimpleData>
		<SimpleData name="Mob_No">9562259483</SimpleData>
		<SimpleData name="ORIG_FID">3134</SimpleData>
		<SimpleData name="Remarks">Kizhakethala</SimpleData>
		<SimpleData name="Shape_Area">837811.05581700662151</SimpleData>
		<SimpleData name="Shape_Leng">0</SimpleData>
		<SimpleData name="Surveyor">Jeri Amal Dev M</SimpleData>
		<SimpleData name="Ward_Name">KIZHAKKETHALA (12)</SimpleData>
		<SimpleData name="Ward_No">12</SimpleData>
	</SchemaData></ExtendedData>
      <MultiGeometry></MultiGeometry>
  </Placemark>
  <Placemark>
	<Style><LineStyle><color>ff0000ff</color></LineStyle><PolyStyle><fill>0</fill></PolyStyle></Style>
	<ExtendedData><SchemaData schemaUrl="#karuvarakundu_boundary">
		<SimpleData name="altitude">0.000000000000000</SimpleData>
		<SimpleData name="District">Malappuram</SimpleData>
		<SimpleData name="LSGD">Karuvarakundu</SimpleData>
		<SimpleData name="Lsgd_Type">Grama Panchayat</SimpleData>
		<SimpleData name="ORIG_FID">3250</SimpleData>
		<SimpleData name="Remarks">Iringattiri</SimpleData>
		<SimpleData name="Shape_Area">2258720.445941393263638</SimpleData>
		<SimpleData name="Shape_Leng">0</SimpleData>
		<SimpleData name="Surveyor">Jery Amal Dev M</SimpleData>
		<SimpleData name="Ward_Name">IRINGATTIRI (21)</SimpleData>
		<SimpleData name="Ward_No">21</SimpleData>
	</SchemaData></ExtendedData>
      <MultiGeometry></MultiGeometry>
  </Placemark>
  <Placemark>
	<Style><LineStyle><color>ff0000ff</color></LineStyle><PolyStyle><fill>0</fill></PolyStyle></Style>
	<ExtendedData><SchemaData schemaUrl="#karuvarakundu_boundary">
		<SimpleData name="altitude">0.000000000000000</SimpleData>
		<SimpleData name="District">Malappuram</SimpleData>
		<SimpleData name="LSGD">Karuvarakundu</SimpleData>
		<SimpleData name="Lsgd_Type">Grama Panchayat</SimpleData>
		<SimpleData name="ORIG_FID">3281</SimpleData>
		<SimpleData name="Remarks">Karinganthoni</SimpleData>
		<SimpleData name="Shape_Area">2522160.217854845803231</SimpleData>
		<SimpleData name="Shape_Leng">0</SimpleData>
		<SimpleData name="Ward_Name">KARINGANTHONI (15)</SimpleData>
		<SimpleData name="Ward_No">15</SimpleData>
	</SchemaData></ExtendedData>
      <MultiGeometry></MultiGeometry>
  </Placemark>
  <Placemark>
	<Style><LineStyle><color>ff0000ff</color></LineStyle><PolyStyle><fill>0</fill></PolyStyle></Style>
	<ExtendedData><SchemaData schemaUrl="#karuvarakundu_boundary">
		<SimpleData name="altitude">0.000000000000000</SimpleData>
		<SimpleData name="District">Malappuram</SimpleData>
		<SimpleData name="LSGD">Karuvarakundu</SimpleData>
		<SimpleData name="Lsgd_Type">Grama Panchayat</SimpleData>
		<SimpleData name="Mob_No">9562259483</SimpleData>
		<SimpleData name="ORIG_FID">3292</SimpleData>
		<SimpleData name="Remarks">Manjalpara</SimpleData>
		<SimpleData name="Shape_Area">1905866.5888693977613</SimpleData>
		<SimpleData name="Shape_Leng">0</SimpleData>
		<SimpleData name="Surveyor">Jery Amaldev</SimpleData>
		<SimpleData name="Ward_Name">MANJALPARA (05)</SimpleData>
		<SimpleData name="Ward_No">5</SimpleData>
	</SchemaData></ExtendedData>
      <MultiGeometry></MultiGeometry>
  </Placemark>
  <Placemark>
	<Style><LineStyle><color>ff0000ff</color></LineStyle><PolyStyle><fill>0</fill></PolyStyle></Style>
	<ExtendedData><SchemaData schemaUrl="#karuvarakundu_boundary">
		<SimpleData name="altitude">0.000000000000000</SimpleData>
		<SimpleData name="District">Malappuram</SimpleData>
		<SimpleData name="LSGD">Karuvarakundu</SimpleData>
		<SimpleData name="Lsgd_Type">Grama Panchayat</SimpleData>
		<SimpleData name="ORIG_FID">3436</SimpleData>
		<SimpleData name="Remarks">Kakkara</SimpleData>
		<SimpleData name="Shape_Area">4960713.984908936545253</SimpleData>
		<SimpleData name="Shape_Leng">0</SimpleData>
		<SimpleData name="Ward_Name">KAKKARA (14)</SimpleData>
		<SimpleData name="Ward_No">14</SimpleData>
	</SchemaData></ExtendedData>
      <MultiGeometry></MultiGeometry>
  </Placemark>
  <Placemark>
	<Style><LineStyle><color>ff0000ff</color></LineStyle><PolyStyle><fill>0</fill></PolyStyle></Style>
	<ExtendedData><SchemaData schemaUrl="#karuvarakundu_boundary">
		<SimpleData name="altitude">0.000000000000000</SimpleData>
		<SimpleData name="District">Malappuram</SimpleData>
		<SimpleData name="LSGD">Karuvarakundu</SimpleData>
		<SimpleData name="Lsgd_Type">Grama Panchayat</SimpleData>
		<SimpleData name="Mob_No">9562259483</SimpleData>
		<SimpleData name="ORIG_FID">3854</SimpleData>
		<SimpleData name="Remarks">Kalkundu</SimpleData>
		<SimpleData name="Shape_Area">23992165.412184655666351</SimpleData>
		<SimpleData name="Shape_Leng">0</SimpleData>
		<SimpleData name="Surveyor">Jery Amaldev</SimpleData>
		<SimpleData name="Ward_Name">KALKUNDU (07)</SimpleData>
		<SimpleData name="Ward_No">7</SimpleData>
	</SchemaData></ExtendedData>
      <MultiGeometry></MultiGeometry>
  </Placemark>
  <Placemark>
	<Style><LineStyle><color>ff0000ff</color></LineStyle><PolyStyle><fill>0</fill></PolyStyle></Style>
	<ExtendedData><SchemaData schemaUrl="#karuvarakundu_boundary">
		<SimpleData name="altitude">0.000000000000000</SimpleData>
		<SimpleData name="District">Malappuram</SimpleData>
		<SimpleData name="LSGD">Karuvarakundu</SimpleData>
		<SimpleData name="Lsgd_Type">Grama Panchayat</SimpleData>
		<SimpleData name="ORIG_FID">4303</SimpleData>
		<SimpleData name="Remarks">Pandra</SimpleData>
		<SimpleData name="Shape_Area">13681317.445237612351775</SimpleData>
		<SimpleData name="Shape_Leng">0</SimpleData>
		<SimpleData name="Surveyor">Jery Amaldev</SimpleData>
		<SimpleData name="Ward_Name">PANDRA (06)</SimpleData>
		<SimpleData name="Ward_No">6</SimpleData>
	</SchemaData></ExtendedData>
      <MultiGeometry></MultiGeometry>
  </Placemark>
</Folder>
</Document></kml>
